{"fetched_at":"2026-07-17T17:37:58.322Z","source":"https://celestrak.org/NORAD/elements/gp.php?GROUP=spire&FORMAT=JSON","constellation":"spire","records":[{"OBJECT_NAME":"LEMUR-2-VALHALLA","OBJECT_ID":"2024-022B","EPOCH":"2026-07-16T19:58:34.660704","CLASSIFICATION_TYPE":"U","MEAN_MOTION":15.40519232,"ECCENTRICITY":0.00090434,"INCLINATION":97.4076,"RA_OF_ASC_NODE":48.1944,"ARG_OF_PERICENTER":18.4869,"MEAN_ANOMALY":341.6704,"EPHEMERIS_TYPE":0,"NORAD_CAT_ID":58900,"ELEMENT_SET_NO":999,"REV_AT_EPOCH":13683,"BSTAR":0.00023769484,"MEAN_MOTION_DOT":0.00009575,"MEAN_MOTION_DDOT":0},{"OBJECT_NAME":"LEMUR-2-CAEL","OBJECT_ID":"2024-022E","EPOCH":"2026-07-17T00:16:06.845376","CLASSIFICATION_TYPE":"U","MEAN_MOTION":15.41893373,"ECCENTRICITY":0.00069123,"INCLINATION":97.4055,"RA_OF_ASC_NODE":49.3652,"ARG_OF_PERICENTER":3.126,"MEAN_ANOMALY":357.0029,"EPHEMERIS_TYPE":0,"NORAD_CAT_ID":58903,"ELEMENT_SET_NO":999,"REV_AT_EPOCH":13693,"BSTAR":0.00024001525,"MEAN_MOTION_DOT":0.00010116,"MEAN_MOTION_DDOT":0},{"OBJECT_NAME":"LEMUR-2-JOHNNYTRUONG","OBJECT_ID":"2024-043BA","EPOCH":"2026-07-16T22:43:33.492288","CLASSIFICATION_TYPE":"U","MEAN_MOTION":15.62657592,"ECCENTRICITY":0.00040088,"INCLINATION":97.5398,"RA_OF_ASC_NODE":351.5472,"ARG_OF_PERICENTER":89.6727,"MEAN_ANOMALY":270.499,"EPHEMERIS_TYPE":0,"NORAD_CAT_ID":59146,"ELEMENT_SET_NO":999,"REV_AT_EPOCH":13268,"BSTAR":0.00028537315,"MEAN_MOTION_DOT":0.00025455,"MEAN_MOTION_DDOT":0},{"OBJECT_NAME":"LEMUR-2-TOMATOKECHUP","OBJECT_ID":"2024-149D","EPOCH":"2026-07-16T11:34:09.058656","CLASSIFICATION_TYPE":"U","MEAN_MOTION":15.36597838,"ECCENTRICITY":0.0003348,"INCLINATION":97.3796,"RA_OF_ASC_NODE":279.614,"ARG_OF_PERICENTER":120.3105,"MEAN_ANOMALY":239.8471,"EPHEMERIS_TYPE":0,"NORAD_CAT_ID":60471,"ELEMENT_SET_NO":999,"REV_AT_EPOCH":10666,"BSTAR":0.00016419,"MEAN_MOTION_DOT":0.00005784,"MEAN_MOTION_DDOT":0},{"OBJECT_NAME":"LEMUR-2-STELLA","OBJECT_ID":"2024-149BT","EPOCH":"2026-07-17T04:34:57.477792","CLASSIFICATION_TYPE":"U","MEAN_MOTION":15.12393884,"ECCENTRICITY":0.00012249,"INCLINATION":97.6732,"RA_OF_ASC_NODE":280.7889,"ARG_OF_PERICENTER":121.9085,"MEAN_ANOMALY":238.2264,"EPHEMERIS_TYPE":0,"NORAD_CAT_ID":60533,"ELEMENT_SET_NO":999,"REV_AT_EPOCH":10503,"BSTAR":0.00034171112,"MEAN_MOTION_DOT":0.00005866,"MEAN_MOTION_DDOT":0},{"OBJECT_NAME":"LEMUR-2-MARHISYAM","OBJECT_ID":"2024-149BW","EPOCH":"2026-07-17T04:22:59.882592","CLASSIFICATION_TYPE":"U","MEAN_MOTION":15.11799755,"ECCENTRICITY":0.00022914,"INCLINATION":97.6875,"RA_OF_ASC_NODE":281.2593,"ARG_OF_PERICENTER":66.0951,"MEAN_ANOMALY":294.0519,"EPHEMERIS_TYPE":0,"NORAD_CAT_ID":60536,"ELEMENT_SET_NO":999,"REV_AT_EPOCH":10501,"BSTAR":0.00034433031,"MEAN_MOTION_DOT":0.00005814,"MEAN_MOTION_DDOT":0},{"OBJECT_NAME":"LEMUR-2-AHMED-ASRAR","OBJECT_ID":"2024-149DN","EPOCH":"2026-07-17T04:29:28.680864","CLASSIFICATION_TYPE":"U","MEAN_MOTION":15.13331428,"ECCENTRICITY":0.00013809,"INCLINATION":97.7002,"RA_OF_ASC_NODE":283.4749,"ARG_OF_PERICENTER":197.8671,"MEAN_ANOMALY":162.2511,"EPHEMERIS_TYPE":0,"NORAD_CAT_ID":60576,"ELEMENT_SET_NO":999,"REV_AT_EPOCH":10510,"BSTAR":0.00036384492,"MEAN_MOTION_DOT":0.00006416,"MEAN_MOTION_DDOT":0},{"OBJECT_NAME":"LEMUR-2-LLOYD","OBJECT_ID":"2024-149DP","EPOCH":"2026-07-16T17:44:34.201536","CLASSIFICATION_TYPE":"U","MEAN_MOTION":15.09766834,"ECCENTRICITY":0.00046627,"INCLINATION":97.6742,"RA_OF_ASC_NODE":278.8938,"ARG_OF_PERICENTER":68.7194,"MEAN_ANOMALY":291.4532,"EPHEMERIS_TYPE":0,"NORAD_CAT_ID":60577,"ELEMENT_SET_NO":999,"REV_AT_EPOCH":10485,"BSTAR":0.00030078377,"MEAN_MOTION_DOT":0.00004792,"MEAN_MOTION_DDOT":0},{"OBJECT_NAME":"LEMUR-2-SQUIRRELCOMM","OBJECT_ID":"2024-149DQ","EPOCH":"2026-07-17T04:40:39.992448","CLASSIFICATION_TYPE":"U","MEAN_MOTION":15.0745645,"ECCENTRICITY":0.00040394,"INCLINATION":97.6704,"RA_OF_ASC_NODE":279.0168,"ARG_OF_PERICENTER":318.1739,"MEAN_ANOMALY":41.9179,"EPHEMERIS_TYPE":0,"NORAD_CAT_ID":60578,"ELEMENT_SET_NO":999,"REV_AT_EPOCH":10492,"BSTAR":0.00016298138,"MEAN_MOTION_DOT":0.00002407,"MEAN_MOTION_DDOT":0},{"OBJECT_NAME":"LEMUR-2-SIERRINI","OBJECT_ID":"2024-149DR","EPOCH":"2026-07-16T22:43:47.265312","CLASSIFICATION_TYPE":"U","MEAN_MOTION":15.11533947,"ECCENTRICITY":0.00064239,"INCLINATION":97.6838,"RA_OF_ASC_NODE":280.6818,"ARG_OF_PERICENTER":86.488,"MEAN_ANOMALY":273.7085,"EPHEMERIS_TYPE":0,"NORAD_CAT_ID":60579,"ELEMENT_SET_NO":999,"REV_AT_EPOCH":10495,"BSTAR":0.00034313064,"MEAN_MOTION_DOT":0.00005753,"MEAN_MOTION_DDOT":0},{"OBJECT_NAME":"LEMUR-2-WILSON","OBJECT_ID":"2025-009CP","EPOCH":"2026-07-16T17:47:00.235680","CLASSIFICATION_TYPE":"U","MEAN_MOTION":14.95279131,"ECCENTRICITY":0.00019037,"INCLINATION":97.7019,"RA_OF_ASC_NODE":275.6876,"ARG_OF_PERICENTER":316.2557,"MEAN_ANOMALY":43.8513,"EPHEMERIS_TYPE":0,"NORAD_CAT_ID":62694,"ELEMENT_SET_NO":999,"REV_AT_EPOCH":8177,"BSTAR":0.000077175257,"MEAN_MOTION_DOT":0.00000793,"MEAN_MOTION_DDOT":0},{"OBJECT_NAME":"LEMUR-2-STAR-FOX","OBJECT_ID":"2025-009CR","EPOCH":"2026-07-17T04:34:53.327136","CLASSIFICATION_TYPE":"U","MEAN_MOTION":15.02855199,"ECCENTRICITY":0.00019867,"INCLINATION":97.6903,"RA_OF_ASC_NODE":279.5841,"ARG_OF_PERICENTER":34.7534,"MEAN_ANOMALY":325.382,"EPHEMERIS_TYPE":0,"NORAD_CAT_ID":62696,"ELEMENT_SET_NO":999,"REV_AT_EPOCH":8206,"BSTAR":0.00026998749,"MEAN_MOTION_DOT":0.00003558,"MEAN_MOTION_DDOT":0},{"OBJECT_NAME":"LEMUR-2-ARIANNA","OBJECT_ID":"2025-009CU","EPOCH":"2026-07-17T04:32:40.632288","CLASSIFICATION_TYPE":"U","MEAN_MOTION":15.02857687,"ECCENTRICITY":0.00023394,"INCLINATION":97.6845,"RA_OF_ASC_NODE":279.3334,"ARG_OF_PERICENTER":42.8979,"MEAN_ANOMALY":317.2428,"EPHEMERIS_TYPE":0,"NORAD_CAT_ID":62699,"ELEMENT_SET_NO":999,"REV_AT_EPOCH":8206,"BSTAR":0.00028272678,"MEAN_MOTION_DOT":0.00003729,"MEAN_MOTION_DDOT":0},{"OBJECT_NAME":"LEMUR-2-ALISIA","OBJECT_ID":"2025-009DB","EPOCH":"2026-07-17T00:40:32.325888","CLASSIFICATION_TYPE":"U","MEAN_MOTION":15.03191133,"ECCENTRICITY":0.00045387,"INCLINATION":97.6968,"RA_OF_ASC_NODE":280.002,"ARG_OF_PERICENTER":123.9243,"MEAN_ANOMALY":236.2414,"EPHEMERIS_TYPE":0,"NORAD_CAT_ID":62706,"ELEMENT_SET_NO":999,"REV_AT_EPOCH":10464,"BSTAR":0.0003126833,"MEAN_MOTION_DOT":0.00004168,"MEAN_MOTION_DDOT":0},{"OBJECT_NAME":"LEMUR-2-ROUNDTRIPPER","OBJECT_ID":"2025-009DG","EPOCH":"2026-07-17T03:57:43.973856","CLASSIFICATION_TYPE":"U","MEAN_MOTION":15.04249593,"ECCENTRICITY":0.00044912,"INCLINATION":97.7249,"RA_OF_ASC_NODE":280.8085,"ARG_OF_PERICENTER":60.2795,"MEAN_ANOMALY":299.8877,"EPHEMERIS_TYPE":0,"NORAD_CAT_ID":62711,"ELEMENT_SET_NO":999,"REV_AT_EPOCH":8213,"BSTAR":0.00030967837,"MEAN_MOTION_DOT":0.00004246,"MEAN_MOTION_DDOT":0},{"OBJECT_NAME":"LEMUR-2-MYNAMEISJEFF","OBJECT_ID":"2025-009DH","EPOCH":"2026-07-16T19:56:37.511808","CLASSIFICATION_TYPE":"U","MEAN_MOTION":15.0423821,"ECCENTRICITY":0.00042188,"INCLINATION":97.7299,"RA_OF_ASC_NODE":280.8736,"ARG_OF_PERICENTER":93.9545,"MEAN_ANOMALY":266.2163,"EPHEMERIS_TYPE":0,"NORAD_CAT_ID":62712,"ELEMENT_SET_NO":999,"REV_AT_EPOCH":8208,"BSTAR":0.00032713731,"MEAN_MOTION_DOT":0.00004487,"MEAN_MOTION_DDOT":0}]}
