LEMUR-2-VALHALLA        
1 58900U 24022B   26197.83234561  .00009575  00000+0  23769-3 0  9994
2 58900  97.4076  48.1944 0009043  18.4869 341.6704 15.40519232136837
LEMUR-2-CAEL            
1 58903U 24022E   26198.01119034  .00010116  00000+0  24002-3 0  9999
2 58903  97.4055  49.3652 0006912   3.1260 357.0029 15.41893373136938
LEMUR-2-JOHNNYTRUONG    
1 59146U 24043BA  26197.94691542  .00025455  00000+0  28537-3 0  9991
2 59146  97.5398 351.5472 0004008  89.6727 270.4990 15.62657592132685
LEMUR-2-TOMATOKECHUP    
1 60471U 24149D   26197.48204929  .00005784  00000+0  16419-3 0  9998
2 60471  97.3796 279.6140 0003348 120.3105 239.8471 15.36597838106668
LEMUR-2-STELLA          
1 60533U 24149BT  26198.19094303  .00005866  00000+0  34171-3 0  9995
2 60533  97.6732 280.7889 0001224 121.9085 238.2264 15.12393884105030
LEMUR-2-MARHISYAM       
1 60536U 24149BW  26198.18263753  .00005814  00000+0  34433-3 0  9998
2 60536  97.6875 281.2593 0002291  66.0951 294.0519 15.11799755105012
LEMUR-2-AHMED-ASRAR     
1 60576U 24149DN  26198.18713751  .00006416  00000+0  36384-3 0  9996
2 60576  97.7002 283.4749 0001380 197.8671 162.2511 15.13331428105105
LEMUR-2-LLOYD           
1 60577U 24149DP  26197.73928474  .00004792  00000+0  30078-3 0  9996
2 60577  97.6742 278.8938 0004662  68.7194 291.4532 15.09766834104853
LEMUR-2-SQUIRRELCOMM    
1 60578U 24149DQ  26198.19490732  .00002407  00000+0  16298-3 0  9998
2 60578  97.6704 279.0168 0004039 318.1739  41.9179 15.07456450104926
LEMUR-2-SIERRINI        
1 60579U 24149DR  26197.94707483  .00005753  00000+0  34313-3 0  9990
2 60579  97.6838 280.6818 0006423  86.4880 273.7085 15.11533947104952
LEMUR-2-WILSON          
1 62694U 25009CP  26197.74097495  .00000793  00000+0  77175-4 0  9992
2 62694  97.7019 275.6876 0001903 316.2557  43.8513 14.95279131 81774
LEMUR-2-STAR-FOX        
1 62696U 25009CR  26198.19089499  .00003558  00000+0  26999-3 0  9998
2 62696  97.6903 279.5841 0001986  34.7534 325.3820 15.02855199 82065
LEMUR-2-ARIANNA         
1 62699U 25009CU  26198.18935917  .00003729  00000+0  28273-3 0  9992
2 62699  97.6845 279.3334 0002339  42.8979 317.2428 15.02857687 82062
LEMUR-2-ALISIA          
1 62706U 25009DB  26198.02815192  .00004168  00000+0  31268-3 0  9992
2 62706  97.6968 280.0020 0004538 123.9243 236.2414 15.03191133104648
LEMUR-2-ROUNDTRIPPER    
1 62711U 25009DG  26198.16509229  .00004246  00000+0  30968-3 0  9997
2 62711  97.7249 280.8085 0004491  60.2795 299.8877 15.04249593 82131
LEMUR-2-MYNAMEISJEFF    
1 62712U 25009DH  26197.83098972  .00004487  00000+0  32714-3 0  9997
2 62712  97.7299 280.8736 0004218  93.9545 266.2163 15.04238210 82087
